start=new Date('2023-04-25T00:00:00.000Z').valueOf();
sats=[{"TIME_SYSTEM":"UTC","CENTER_NAME":"EARTH","RA_OF_ASC_NODE":"331.8549","SITE":"AFWTR","ARG_OF_PERICENTER":"266.8800","PERIAPSIS":"567.317","MEAN_ELEMENT_THEORY":"SGP4","RCS_SIZE":"LARGE","PERIOD":"96.054","EPOCH":"2023-04-24T17:50:21.170976","MEAN_MOTION_DOT":"0.00002226","INCLINATION":"69.9989","OBJECT_NAME":"STARLINK-5303","MEAN_MOTION":"14.99154721","OBJECT_ID":"2023-021C","REV_AT_EPOCH":"1072","TLE_LINE2":"2 55630  69.9989 331.8549 0003154 266.8800  93.1999 14.99154721 10720","APOAPSIS":"571.700","REF_FRAME":"TEME","MEAN_MOTION_DDOT":"0.0000000000000","GP_ID":"230706960","OBJECT_TYPE":"PAYLOAD","BSTAR":"0.00019028000000","NORAD_CAT_ID":"55630","EPHEMERIS_TYPE":"0","DECAY_DATE":null,"FILE":"3893509","LAUNCH_DATE":"2023-02-17","CLASSIFICATION_TYPE":"U","SEMIMAJOR_AXIS":"6947.644","ELEMENT_SET_NO":"999","COUNTRY_CODE":"US","ECCENTRICITY":"0.00031540","TLE_LINE1":"1 55630U 23021C   23114.74330059  .00002226  00000-0  19028-3 0  9994","MEAN_ANOMALY":"93.1999"},{"SITE":"AFWTR","RA_OF_ASC_NODE":"332.0752","CENTER_NAME":"EARTH","TIME_SYSTEM":"UTC","ARG_OF_PERICENTER":"269.6299","PERIAPSIS":"568.869","MEAN_ELEMENT_THEORY":"SGP4","PERIOD":"96.088","RCS_SIZE":"LARGE","MEAN_MOTION":"14.98633083","OBJECT_NAME":"STARLINK-5558","INCLINATION":"69.9989","MEAN_MOTION_DOT":"-0.00050366","EPOCH":"2023-04-24T13:50:15.582336","MEAN_MOTION_DDOT":"0.0000000000000","REF_FRAME":"TEME","APOAPSIS":"573.372","TLE_LINE2":"2 55631  69.9989 332.0752 0003240 269.6299  90.4489 14.98633083 11007","REV_AT_EPOCH":"1100","OBJECT_ID":"2023-021D","FILE":"3893330","DECAY_DATE":null,"OBJECT_TYPE":"PAYLOAD","EPHEMERIS_TYPE":"0","BSTAR":"-0.00421040000000","NORAD_CAT_ID":"55631","GP_ID":"230702225","ELEMENT_SET_NO":"999","SEMIMAJOR_AXIS":"6949.256","LAUNCH_DATE":"2023-02-17","CLASSIFICATION_TYPE":"U","MEAN_ANOMALY":"90.4489","TLE_LINE1":"1 55631U 23021D   23114.57656924 -.00050366  00000-0 -42104-2 0  9998","ECCENTRICITY":"0.00032400","COUNTRY_CODE":"US"},{"ELEMENT_SET_NO":"999","SEMIMAJOR_AXIS":"6950.163","CLASSIFICATION_TYPE":"U","LAUNCH_DATE":"2023-02-17","MEAN_ANOMALY":"88.6580","ECCENTRICITY":"0.00029230","TLE_LINE1":"1 55632U 23021E   23114.59317728  .00001151  00000-0  10419-3 0  9998","COUNTRY_CODE":"US","MEAN_MOTION_DDOT":"0.0000000000000","APOAPSIS":"574.059","REF_FRAME":"TEME","OBJECT_ID":"2023-021E","REV_AT_EPOCH":"1100","TLE_LINE2":"2 55632  70.0000 332.1332 0002923 271.4244  88.6580 14.98339682 11007","FILE":"3893330","DECAY_DATE":null,"BSTAR":"0.00010419000000","OBJECT_TYPE":"PAYLOAD","NORAD_CAT_ID":"55632","EPHEMERIS_TYPE":"0","GP_ID":"230700974","PERIOD":"96.106","RCS_SIZE":"LARGE","INCLINATION":"70.0000","OBJECT_NAME":"STARLINK-5546","MEAN_MOTION":"14.98339682","MEAN_MOTION_DOT":"0.00001151","EPOCH":"2023-04-24T14:14:10.516992","SITE":"AFWTR","RA_OF_ASC_NODE":"332.1332","CENTER_NAME":"EARTH","TIME_SYSTEM":"UTC","PERIAPSIS":"569.996","MEAN_ELEMENT_THEORY":"SGP4","ARG_OF_PERICENTER":"271.4244"},{"ARG_OF_PERICENTER":"265.6367","PERIAPSIS":"569.354","MEAN_ELEMENT_THEORY":"SGP4","CENTER_NAME":"EARTH","TIME_SYSTEM":"UTC","SITE":"AFWTR","RA_OF_ASC_NODE":"332.1184","MEAN_MOTION_DOT":"-0.00040090","EPOCH":"2023-04-24T14:08:11.401440","MEAN_MOTION":"14.98554153","OBJECT_NAME":"STARLINK-5498","INCLINATION":"69.9992","RCS_SIZE":"LARGE","PERIOD":"96.093","OBJECT_TYPE":"PAYLOAD","BSTAR":"-0.00335180000000","NORAD_CAT_ID":"55633","EPHEMERIS_TYPE":"0","GP_ID":"230701224","FILE":"3893330","DECAY_DATE":null,"REF_FRAME":"TEME","APOAPSIS":"573.376","TLE_LINE2":"2 55633  69.9992 332.1184 0002894 265.6367  94.4461 14.98554153 11003","REV_AT_EPOCH":"1100","OBJECT_ID":"2023-021F","MEAN_MOTION_DDOT":"0.0000000000000","TLE_LINE1":"1 55633U 23021F   23114.58902085 -.00040090  00000-0 -33518-2 0  9995","ECCENTRICITY":"0.00028940","COUNTRY_CODE":"US","MEAN_ANOMALY":"94.4461","LAUNCH_DATE":"2023-02-17","CLASSIFICATION_TYPE":"U","ELEMENT_SET_NO":"999","SEMIMAJOR_AXIS":"6949.500"},{"SITE":"AFWTR","RA_OF_ASC_NODE":"332.1476","CENTER_NAME":"EARTH","TIME_SYSTEM":"UTC","MEAN_ELEMENT_THEORY":"SGP4","PERIAPSIS":"569.440","ARG_OF_PERICENTER":"256.2071","PERIOD":"96.099","RCS_SIZE":"LARGE","MEAN_MOTION":"14.98452350","OBJECT_NAME":"STARLINK-5500","INCLINATION":"69.9990","MEAN_MOTION_DOT":"-0.00019695","EPOCH":"2023-04-24T14:20:11.137632","MEAN_MOTION_DDOT":"0.0000000000000","APOAPSIS":"573.919","REF_FRAME":"TEME","TLE_LINE2":"2 55634  69.9990 332.1476 0003223 256.2071 103.8729 14.98452350 11009","OBJECT_ID":"2023-021G","REV_AT_EPOCH":"1100","FILE":"3893330","DECAY_DATE":null,"BSTAR":"-0.00164220000000","OBJECT_TYPE":"PAYLOAD","EPHEMERIS_TYPE":"0","NORAD_CAT_ID":"55634","GP_ID":"230701974","ELEMENT_SET_NO":"999","SEMIMAJOR_AXIS":"6949.815","LAUNCH_DATE":"2023-02-17","CLASSIFICATION_TYPE":"U","MEAN_ANOMALY":"103.8729","TLE_LINE1":"1 55634U 23021G   23114.59735113 -.00019695  00000-0 -16422-2 0  9995","ECCENTRICITY":"0.00032230","COUNTRY_CODE":"US"},{"TIME_SYSTEM":"UTC","CENTER_NAME":"EARTH","RA_OF_ASC_NODE":"325.0110","SITE":"AFWTR","ARG_OF_PERICENTER":"258.3322","PERIAPSIS":"356.718","MEAN_ELEMENT_THEORY":"SGP4","RCS_SIZE":"LARGE","PERIOD":"91.722","EPOCH":"2023-04-24T13:05:40.704000","MEAN_MOTION_DOT":"0.00012175","MEAN_MOTION":"15.69958931","OBJECT_NAME":"STARLINK-5495","INCLINATION":"69.9997","TLE_LINE2":"2 55635  69.9997 325.0110 0003411 258.3322 101.7490 15.69958931 11179","OBJECT_ID":"2023-021H","REV_AT_EPOCH":"1117","APOAPSIS":"361.315","REF_FRAME":"TEME","MEAN_MOTION_DDOT":"0.0000000000000","GP_ID":"230702726","OBJECT_TYPE":"PAYLOAD","NORAD_CAT_ID":"55635","BSTAR":"0.00010273000000","EPHEMERIS_TYPE":"0","DECAY_DATE":null,"FILE":"3893330","LAUNCH_DATE":"2023-02-17","CLASSIFICATION_TYPE":"U","SEMIMAJOR_AXIS":"6737.151","ELEMENT_SET_NO":"999","COUNTRY_CODE":"US","TLE_LINE1":"1 55635U 23021H   23114.54561000  .00012175  00000-0  10273-3 0  9996","ECCENTRICITY":"0.00034110","MEAN_ANOMALY":"101.7490"},{"MEAN_ANOMALY":"93.1311","TLE_LINE1":"1 55636U 23021J   23114.58239431  .00001326  00000-0  11648-3 0  9994","ECCENTRICITY":"0.00029270","COUNTRY_CODE":"US","ELEMENT_SET_NO":"999","SEMIMAJOR_AXIS":"6947.657","CLASSIFICATION_TYPE":"U","LAUNCH_DATE":"2023-02-17","FILE":"3893330","DECAY_DATE":null,"BSTAR":"0.00011648000000","OBJECT_TYPE":"PAYLOAD","NORAD_CAT_ID":"55636","EPHEMERIS_TYPE":"0","GP_ID":"230701475","MEAN_MOTION_DDOT":"0.0000000000000","APOAPSIS":"571.555","REF_FRAME":"TEME","TLE_LINE2":"2 55636  70.0002 332.0950 0002927 266.9514  93.1311 14.99150562 11003","REV_AT_EPOCH":"1100","OBJECT_ID":"2023-021J","MEAN_MOTION":"14.99150562","INCLINATION":"70.0002","OBJECT_NAME":"STARLINK-5218","MEAN_MOTION_DOT":"0.00001326","EPOCH":"2023-04-24T13:58:38.868384","PERIOD":"96.054","RCS_SIZE":"LARGE","PERIAPSIS":"567.488","MEAN_ELEMENT_THEORY":"SGP4","ARG_OF_PERICENTER":"266.9514","SITE":"AFWTR","RA_OF_ASC_NODE":"332.0950","CENTER_NAME":"EARTH","TIME_SYSTEM":"UTC"},{"EPOCH":"2023-04-24T13:05:31.515360","MEAN_MOTION_DOT":"0.00010833","INCLINATION":"70.0009","OBJECT_NAME":"STARLINK-5062","MEAN_MOTION":"15.69956963","RCS_SIZE":"LARGE","PERIOD":"91.722","MEAN_ELEMENT_THEORY":"SGP4","PERIAPSIS":"356.779","ARG_OF_PERICENTER":"252.7922","TIME_SYSTEM":"UTC","CENTER_NAME":"EARTH","RA_OF_ASC_NODE":"325.0142","SITE":"AFWTR","COUNTRY_CODE":"US","ECCENTRICITY":"0.00033300","TLE_LINE1":"1 55637U 23021K   23114.54550365  .00010833  00000-0  91623-4 0  9998","MEAN_ANOMALY":"107.2909","LAUNCH_DATE":"2023-02-17","CLASSIFICATION_TYPE":"U","SEMIMAJOR_AXIS":"6737.157","ELEMENT_SET_NO":"999","GP_ID":"230701725","NORAD_CAT_ID":"55637","OBJECT_TYPE":"PAYLOAD","BSTAR":"0.00009162300000","EPHEMERIS_TYPE":"0","DECAY_DATE":null,"FILE":"3893330","REV_AT_EPOCH":"1117","OBJECT_ID":"2023-021K","TLE_LINE2":"2 55637  70.0009 325.0142 0003330 252.7922 107.2909 15.69956963 11176","APOAPSIS":"361.266","REF_FRAME":"TEME","MEAN_MOTION_DDOT":"0.0000000000000"},{"PERIOD":"96.054","RCS_SIZE":"LARGE","OBJECT_NAME":"STARLINK-5507","INCLINATION":"70.0000","MEAN_MOTION":"14.99150927","EPOCH":"2023-04-24T14:06:19.275840","MEAN_MOTION_DOT":"0.00001106","RA_OF_ASC_NODE":"332.1127","SITE":"AFWTR","TIME_SYSTEM":"UTC","CENTER_NAME":"EARTH","ARG_OF_PERICENTER":"262.6100","PERIAPSIS":"567.469","MEAN_ELEMENT_THEORY":"SGP4","SEMIMAJOR_AXIS":"6947.655","ELEMENT_SET_NO":"999","LAUNCH_DATE":"2023-02-17","CLASSIFICATION_TYPE":"U","MEAN_ANOMALY":"97.4724","COUNTRY_CODE":"US","ECCENTRICITY":"0.00029520","TLE_LINE1":"1 55638U 23021L   23114.58772310  .00001106  00000-0  98410-4 0  9993","MEAN_MOTION_DDOT":"0.0000000000000","REV_AT_EPOCH":"1100","OBJECT_ID":"2023-021L","TLE_LINE2":"2 55638  70.0000 332.1127 0002952 262.6100  97.4724 14.99150927 11002","REF_FRAME":"TEME","APOAPSIS":"571.571","FILE":"3893330","DECAY_DATE":null,"GP_ID":"230702475","OBJECT_TYPE":"PAYLOAD","BSTAR":"0.00009841000000","EPHEMERIS_TYPE":"0","NORAD_CAT_ID":"55638"},{"MEAN_ELEMENT_THEORY":"SGP4","PERIAPSIS":"356.918","ARG_OF_PERICENTER":"253.9453","TIME_SYSTEM":"UTC","CENTER_NAME":"EARTH","RA_OF_ASC_NODE":"325.0106","SITE":"AFWTR","EPOCH":"2023-04-24T13:04:46.119936","MEAN_MOTION_DOT":"0.00013304","MEAN_MOTION":"15.69960384","OBJECT_NAME":"STARLINK-5508","INCLINATION":"70.0016","RCS_SIZE":"LARGE","PERIOD":"91.722","GP_ID":"230702226","OBJECT_TYPE":"PAYLOAD","NORAD_CAT_ID":"55639","BSTAR":"0.00011207000000","EPHEMERIS_TYPE":"0","FILE":"3893330","DECAY_DATE":null,"TLE_LINE2":"2 55639  70.0016 325.0106 0003109 253.9453 106.1400 15.69960384 11178","OBJECT_ID":"2023-021M","REV_AT_EPOCH":"1117","APOAPSIS":"361.107","REF_FRAME":"TEME","MEAN_MOTION_DDOT":"0.0000000000000","COUNTRY_CODE":"US","TLE_LINE1":"1 55639U 23021M   23114.54497824  .00013304  00000-0  11207-3 0  9995","ECCENTRICITY":"0.00031090","MEAN_ANOMALY":"106.1400","LAUNCH_DATE":"2023-02-17","CLASSIFICATION_TYPE":"U","SEMIMAJOR_AXIS":"6737.147","ELEMENT_SET_NO":"999"}];
